{
  "norad_id": 52119,
  "name": "STARLINK-3558",
  "history": [
    {
      "epoch": "2026-03-28T22:16:18.446592Z",
      "apogee_km": 541.0758085063753,
      "perigee_km": 538.4183725118473,
      "latitude_deg": 1.2951819412606376e-05,
      "longitude_deg": -167.66025705164859,
      "height_km": 540.5619846874929,
      "semi_major_axis_km": 6917.884090509111,
      "eccentricity": 0.00019207,
      "inclination_deg": 53.2202,
      "raan_deg": 352.758,
      "arg_perigee_deg": 86.5346,
      "mean_anomaly_deg": 273.5866,
      "mean_motion_rev_day": 15.08838789
    },
    {
      "epoch": "2026-03-28T23:51:41.629248Z",
      "apogee_km": 540.737170114232,
      "perigee_km": 538.768338690129,
      "latitude_deg": -7.022255440493256e-06,
      "longitude_deg": 168.13124401721817,
      "height_km": 540.6107651747109,
      "semi_major_axis_km": 6917.88975440218,
      "eccentricity": 0.0001423,
      "inclination_deg": 53.2192,
      "raan_deg": 352.4614,
      "arg_perigee_deg": 87.7993,
      "mean_anomaly_deg": 272.3162,
      "mean_motion_rev_day": 15.08836936
    },
    {
      "epoch": "2026-03-30T02:53:14.328672Z",
      "apogee_km": 540.6355509444047,
      "perigee_km": 538.7995523463987,
      "latitude_deg": -3.0449114269154515e-05,
      "longitude_deg": 116.57997153701028,
      "height_km": 540.5190000495376,
      "semi_major_axis_km": 6917.854551645401,
      "eccentricity": 0.0001327,
      "inclination_deg": 53.2182,
      "raan_deg": 347.4063,
      "arg_perigee_deg": 84.0972,
      "mean_anomaly_deg": 276.0171,
      "mean_motion_rev_day": 15.08848453
    },
    {
      "epoch": "2026-03-30T02:53:14.329536Z",
      "apogee_km": 540.6356201229501,
      "perigee_km": 538.7994831678525,
      "latitude_deg": -3.136748270202258e-05,
      "longitude_deg": 116.57996724434926,
      "height_km": 540.5189929353047,
      "semi_major_axis_km": 6917.854551645401,
      "eccentricity": 0.00013271,
      "inclination_deg": 53.2182,
      "raan_deg": 347.4063,
      "arg_perigee_deg": 84.0972,
      "mean_anomaly_deg": 276.0171,
      "mean_motion_rev_day": 15.08848453
    },
    {
      "epoch": "2026-03-30T23:33:15.456096Z",
      "apogee_km": 540.7580212363282,
      "perigee_km": 538.7435323157315,
      "latitude_deg": 1.1193616021707697e-05,
      "longitude_deg": 161.85974319107922,
      "height_km": 540.6093893698536,
      "semi_major_axis_km": 6917.88777677603,
      "eccentricity": 0.0001456,
      "inclination_deg": 53.218,
      "raan_deg": 343.5395,
      "arg_perigee_deg": 87.8935,
      "mean_anomaly_deg": 272.2224,
      "mean_motion_rev_day": 15.08837583
    },
    {
      "epoch": "2026-03-30T23:33:15.456960Z",
      "apogee_km": 540.7578828785736,
      "perigee_km": 538.743670673487,
      "latitude_deg": 1.3039061966426275e-05,
      "longitude_deg": 161.85974095332173,
      "height_km": 540.6093944554236,
      "semi_major_axis_km": 6917.88777677603,
      "eccentricity": 0.00014558,
      "inclination_deg": 53.218,
      "raan_deg": 343.5395,
      "arg_perigee_deg": 87.8935,
      "mean_anomaly_deg": 272.2224,
      "mean_motion_rev_day": 15.08837583
    },
    {
      "epoch": "2026-03-31T23:24:03.038688Z",
      "apogee_km": 540.745304028067,
      "perigee_km": 538.7778536722417,
      "latitude_deg": 5.2668901026146914e-05,
      "longitude_deg": 158.72207157898225,
      "height_km": 540.5647519181997,
      "semi_major_axis_km": 6917.898578850154,
      "eccentricity": 0.0001422,
      "inclination_deg": 53.2186,
      "raan_deg": 339.0794,
      "arg_perigee_deg": 84.6001,
      "mean_anomaly_deg": 275.5154,
      "mean_motion_rev_day": 15.08834049
    },
    {
      "epoch": "2026-04-02T15:08:41.503488Z",
      "apogee_km": 540.8253598945594,
      "perigee_km": 538.683719031772,
      "latitude_deg": 3.973842937274201e-05,
      "longitude_deg": -86.50193514848921,
      "height_km": 540.6297141882388,
      "semi_major_axis_km": 6917.891539463165,
      "eccentricity": 0.00015479,
      "inclination_deg": 53.2204,
      "raan_deg": 331.6479,
      "arg_perigee_deg": 88.8987,
      "mean_anomaly_deg": 271.2183,
      "mean_motion_rev_day": 15.08836352
    },
    {
      "epoch": "2026-04-02T23:05:37.100544Z",
      "apogee_km": 540.8021880914303,
      "perigee_km": 538.693478436554,
      "latitude_deg": 1.511538905015408e-05,
      "longitude_deg": 152.45324770716775,
      "height_km": 540.6450051646382,
      "semi_major_axis_km": 6917.884833263992,
      "eccentricity": 0.00015241,
      "inclination_deg": 53.2199,
      "raan_deg": 330.1612,
      "arg_perigee_deg": 90.0778,
      "mean_anomaly_deg": 270.0389,
      "mean_motion_rev_day": 15.08838546
    },
    {
      "epoch": "2026-04-03T19:45:38.762784Z",
      "apogee_km": 540.8696125469114,
      "perigee_km": 538.6669515051144,
      "latitude_deg": -3.3933327756455774e-05,
      "longitude_deg": -162.26828359767242,
      "height_km": 540.7127033666354,
      "semi_major_axis_km": 6917.905282026013,
      "eccentricity": 0.0001592,
      "inclination_deg": 53.2197,
      "raan_deg": 326.2954,
      "arg_perigee_deg": 92.5392,
      "mean_anomaly_deg": 267.5782,
      "mean_motion_rev_day": 15.08831856
    },
    {
      "epoch": "2026-04-04T00:31:48.061056Z",
      "apogee_km": 540.8004675378725,
      "perigee_km": 538.723160881942,
      "latitude_deg": 1.0828515463599605e-05,
      "longitude_deg": 125.10504072883685,
      "height_km": 540.7238983649187,
      "semi_major_axis_km": 6917.898814209907,
      "eccentricity": 0.00015014,
      "inclination_deg": 53.2192,
      "raan_deg": 325.4033,
      "arg_perigee_deg": 93.6645,
      "mean_anomaly_deg": 266.4519,
      "mean_motion_rev_day": 15.08833972
    },
    {
      "epoch": "2026-04-05T08:19:29.774496Z",
      "apogee_km": 540.6509578290625,
      "perigee_km": 538.7883940976253,
      "latitude_deg": -3.302690824897536e-05,
      "longitude_deg": 0.926329589692732,
      "height_km": 540.6169047027898,
      "semi_major_axis_km": 6917.856675963343,
      "eccentricity": 0.00013462,
      "inclination_deg": 53.2183,
      "raan_deg": 319.4542,
      "arg_perigee_deg": 90.0861,
      "mean_anomaly_deg": 270.0285,
      "mean_motion_rev_day": 15.08847758
    },
    {
      "epoch": "2026-04-05T21:02:35.488032Z",
      "apogee_km": 540.5314344306462,
      "perigee_km": 539.004652787522,
      "latitude_deg": -1.820354220871059e-05,
      "longitude_deg": 167.2511131396774,
      "height_km": 540.7773858085764,
      "semi_major_axis_km": 6917.905043609084,
      "eccentricity": 0.00011035,
      "inclination_deg": 53.2185,
      "raan_deg": 317.0751,
      "arg_perigee_deg": 98.5241,
      "mean_anomaly_deg": 261.5876,
      "mean_motion_rev_day": 15.08831934
    },
    {
      "epoch": "2026-04-07T00:04:08.547744Z",
      "apogee_km": 540.7699671223736,
      "perigee_km": 538.6937763165943,
      "latitude_deg": 2.5050972326381545e-05,
      "longitude_deg": 115.69708157130795,
      "height_km": 540.8025940425307,
      "semi_major_axis_km": 6917.868871719484,
      "eccentricity": 0.00015006,
      "inclination_deg": 53.2187,
      "raan_deg": 312.0187,
      "arg_perigee_deg": 99.7079,
      "mean_anomaly_deg": 260.4083,
      "mean_motion_rev_day": 15.08843768
    },
    {
      "epoch": "2026-04-07T20:44:09.617280Z",
      "apogee_km": 540.7560422783572,
      "perigee_km": 538.7526209487223,
      "latitude_deg": -3.492381663018555e-07,
      "longitude_deg": 160.97814171952047,
      "height_km": 540.809224636719,
      "semi_major_axis_km": 6917.8913316135395,
      "eccentricity": 0.0001448,
      "inclination_deg": 53.2184,
      "raan_deg": 308.153,
      "arg_perigee_deg": 99.1436,
      "mean_anomaly_deg": 260.972,
      "mean_motion_rev_day": 15.0883642
    }
  ]
}